*******************************************************************************
JPL/HORIZONS                 1512 Oulu (1939 FE)           2023-Sep-04 11:12:35
Rec #:    1512 (+COV) Soln.date: 2023-Aug-22_04:05:39   # obs: 5007 (1939-2023)
 
IAU76/J2000 helio. ecliptic osc. elements (au, days, deg., period=Julian yrs):
 
  EPOCH=  2457393.5 ! 2016-Jan-06.00 (TDB)         Residual RMS= .24508
   EC= .1480028070804808   QR= 3.371729604208246   TP= 2458220.5406585443
   OM= 10.18526836491854   W=  240.0607189198937   IN= 6.490694840648501
   A= 3.957442151486929    MA= 256.4597827927042   ADIST= 4.543154698765612
   PER= 7.87282            N= .125193624           ANGMOM= .033843813
   DAN= 4.17947            DDN= 3.60451            L= 250.0863893
   B= -5.6215351           MOID= 2.36347008        TP= 2018-Apr-12.0406585443
 
Asteroid physical parameters (km, seconds, rotational period in hours):
   GM= n.a.                RAD= 39.936             ROTPER= 132.3
   H= 9.53                 G= .150                 B-V= .715
                           ALBEDO= .039            STYP= P

ASTEROID comments: 
1: soln ref.= JPL#59, OCC=0
2: source=ORB
*******************************************************************************


*******************************************************************************
Ephemeris / API_USER Mon Sep  4 11:12:35 2023 Pasadena, USA      / Horizons
*******************************************************************************
Target body name: 1512 Oulu (1939 FE)             {source: JPL#59}
Center body name: Solar System Barycenter (0)     {source: DE441}
Center-site name: BODY CENTER
*******************************************************************************
Start time      : A.D. 2023-Aug-12 00:00:00.0000 TDB
Stop  time      : A.D. 2023-Aug-13 00:00:00.0000 TDB
Step-size       : 2880 minutes
*******************************************************************************
Center geodetic : 0.0, 0.0, 0.0                   {E-lon(deg),Lat(deg),Alt(km)}
Center cylindric: 0.0, 0.0, 0.0                   {E-lon(deg),Dxy(km),Dz(km)}
Center radii    : (undefined)
Small perturbers: Yes                             {source: SB441-N16}
Output units    : KM-S
Calendar mode   : Mixed Julian/Gregorian
Output type     : GEOMETRIC cartesian states
Output format   : 2 (position and velocity)
Reference frame : Ecliptic of J2000.0
*******************************************************************************
Initial IAU76/J2000 heliocentric ecliptic osculating elements (au, days, deg.):
  EPOCH=  2457393.5 ! 2016-Jan-06.00 (TDB)         Residual RMS= .24508        
   EC= .1480028070804808   QR= 3.371729604208246   TP= 2458220.5406585443      
   OM= 10.18526836491854   W=  240.0607189198937   IN= 6.490694840648501       
  Equivalent ICRF heliocentric cartesian coordinates (au, au/d):
   X=-2.737998676989295E+00  Y= 2.702568993772169E+00  Z= 1.612666569571803E+00
  VX=-5.376983469359118E-03 VY=-5.413651690143437E-03 VZ=-2.980089781120564E-03
Asteroid physical parameters (km, seconds, rotational period in hours):        
   GM= n.a.                RAD= 39.936             ROTPER= 132.3               
   H= 9.53                 G= .150                 B-V= .715                   
                           ALBEDO= .039            STYP= P                     
*******************************************************************************
JDTDB
   X     Y     Z
   VX    VY    VZ
*******************************************************************************
$$SOE
2460168.500000000 = A.D. 2023-Aug-12 00:00:00.0000 TDB 
 X =-3.150485448936255E+08 Y = 5.496278089580401E+08 Z = 6.763003585387865E+07
 VX=-1.115686688940412E+01 VY=-8.256434890520300E+00 VZ=-6.993580111750872E-01
$$EOE
*******************************************************************************
 
TIME

  Barycentric Dynamical Time ("TDB" or T_eph) output was requested. This
continuous coordinate time is equivalent to the relativistic proper time
of a clock at rest in a reference frame co-moving with the solar system
barycenter but outside the system's gravity well. It is the independent
variable in the solar system relativistic equations of motion.

  TDB runs at a uniform rate of one SI second per second and is independent
of irregularities in Earth's rotation.
 
CALENDAR SYSTEM

  Mixed calendar mode was active such that calendar dates after AD 1582-Oct-15
(if any) are in the modern Gregorian system. Dates prior to 1582-Oct-5 (if any)
are in the Julian calendar system, which is automatically extended for dates
prior to its adoption on 45-Jan-1 BC.  The Julian calendar is useful for
matching historical dates. The Gregorian calendar more accurately corresponds
to the Earth's orbital motion and seasons. A "Gregorian-only" calendar mode is
available if such physical events are the primary interest.

REFERENCE FRAME AND COORDINATES

  Ecliptic at the standard reference epoch

    Reference epoch: J2000.0
    X-Y plane: adopted Earth orbital plane at the reference epoch
               Note: IAU76 obliquity of 84381.448 arcseconds wrt ICRF X-Y plane
    X-axis   : ICRF
    Z-axis   : perpendicular to the X-Y plane in the directional (+ or -) sense
               of Earth's north pole at the reference epoch.

  Symbol meaning:

    JDTDB    Julian Day Number, Barycentric Dynamical Time
      X      X-component of position vector (km)
      Y      Y-component of position vector (km)
      Z      Z-component of position vector (km)
      VX     X-component of velocity vector (km/sec)                           
      VY     Y-component of velocity vector (km/sec)                           
      VZ     Z-component of velocity vector (km/sec)                           

ABERRATIONS AND CORRECTIONS

 Geometric state vectors have NO corrections or aberrations applied.

Computations by ...

    Solar System Dynamics Group, Horizons On-Line Ephemeris System
    4800 Oak Grove Drive, Jet Propulsion Laboratory
    Pasadena, CA  91109   USA

    General site: https://ssd.jpl.nasa.gov/
    Mailing list: https://ssd.jpl.nasa.gov/email_list.html
    System news : https://ssd.jpl.nasa.gov/horizons/news.html
    User Guide  : https://ssd.jpl.nasa.gov/horizons/manual.html
    Connect     : browser        https://ssd.jpl.nasa.gov/horizons/app.html#/x
                  API            https://ssd-api.jpl.nasa.gov/doc/horizons.html
                  command-line   telnet ssd.jpl.nasa.gov 6775
                  e-mail/batch   https://ssd.jpl.nasa.gov/ftp/ssd/hrzn_batch.txt
                  scripts        https://ssd.jpl.nasa.gov/ftp/ssd/SCRIPTS
    Author      : Jon.D.Giorgini@jpl.nasa.gov
*******************************************************************************
